[{"OBJECT_NAME":"PANDORE","OBJECT_ID":"2025-052AL","EPOCH":"2026-03-09T16:13:59.670048","MEAN_MOTION":14.94431732,"ECCENTRICITY":0.0005112,"INCLINATION":97.7015,"RA_OF_ASC_NODE":321.9433,"ARG_OF_PERICENTER":151.9155,"MEAN_ANOMALY":208.2342,"EPHEMERIS_TYPE":0,"CLASSIFICATION_TYPE":"U","NORAD_CAT_ID":63244,"ELEMENT_SET_NO":999,"REV_AT_EPOCH":5374,"BSTAR":0.00033342696,"MEAN_MOTION_DOT":3.538e-5,"MEAN_MOTION_DDOT":0},{"OBJECT_NAME":"CZ-4B DEB","OBJECT_ID":"1999-057FK","EPOCH":"2026-03-09T23:55:35.988384","MEAN_MOTION":14.81902328,"ECCENTRICITY":0.00573927,"INCLINATION":98.6953,"RA_OF_ASC_NODE":211.5304,"ARG_OF_PERICENTER":243.9033,"MEAN_ANOMALY":233.0839,"EPHEMERIS_TYPE":0,"CLASSIFICATION_TYPE":"U","NORAD_CAT_ID":26273,"ELEMENT_SET_NO":999,"REV_AT_EPOCH":39470,"BSTAR":0.00032679991,"MEAN_MOTION_DOT":2.595e-5,"MEAN_MOTION_DDOT":0}]
